ONEWEB-0228             
1 48780U 21045P   24204.91398364  .00000074  00000+0  16266-3 0  9998
2 48780  87.9013  37.3366 0001740  81.8902 278.2425 13.15069972153041
